COSMOS 2527 (756)       
1 43508U 18053A   25332.71012380  .00000012  00000+0  00000+0 0  9995
2 43508  65.4651  80.6007 0008576 223.0414 136.8979  2.13102090 58006
COSMOS 2529 (757)       
1 43687U 18086A   25334.21541090  .00000091  00000+0  00000+0 0  9998
2 43687  64.2916 199.3117 0007376 254.6594 105.3481  2.13101906 55046
COSMOS 2534 (758)       
1 44299U 19030A   25334.18957872  .00000091  00000+0  00000+0 0  9993
2 44299  64.3652 199.3159 0009133 283.4728 191.1332  2.13101977 50683
COSMOS 2544 (759)       
1 44850U 19088A   25332.65466679  .00000012  00000+0  00000+0 0  9992
2 44850  65.4525  80.4296 0013559 248.4541 111.4081  2.13101801 46441
COSMOS 2545 (760)       
1 45358U 20018A   25334.25830001 -.00000022  00000+0  00000+0 0  9995
2 45358  64.4769 319.4079 0011944 248.2158 111.6706  2.13102401 44425
COSMOS 2547 (705K)      
1 46805U 20075A   25333.97701096  .00000089  00000+0  00000+0 0  9997
2 46805  64.5957 199.1228 0006331 229.7361 130.2968  2.13099890 39660
COSMOS 2557 (706K)      
1 52984U 22075A   25334.14236509 -.00000022  00000+0  00000+0 0  9994
2 52984  64.4168 321.4948 0013763 276.2798  83.5796  2.13101793 26475
COSMOS 2559 (707K)      
1 54031U 22130A   25333.96150889 -.00000021  00000+0  00000+0 0  9995
2 54031  64.3892 321.5910 0012128 192.8743 167.1117  2.13101289 24441
